[{"OBJECT_NAME":"JILIN-1 GAOFEN 3D27","OBJECT_ID":"2022-048B","EPOCH":"2026-03-09T22:32:26.918016","MEAN_MOTION":15.58727151,"ECCENTRICITY":0.00043638,"INCLINATION":97.5629,"RA_OF_ASC_NODE":175.3759,"ARG_OF_PERICENTER":54.1593,"MEAN_ANOMALY":306.0067,"EPHEMERIS_TYPE":0,"CLASSIFICATION_TYPE":"U","NORAD_CAT_ID":52444,"ELEMENT_SET_NO":999,"REV_AT_EPOCH":21394,"BSTAR":0.00099383918,"MEAN_MOTION_DOT":0.00077026,"MEAN_MOTION_DDOT":0},{"OBJECT_NAME":"ZK-1A R\/B","OBJECT_ID":"2025-108G","EPOCH":"2026-03-09T22:10:12.431136","MEAN_MOTION":15.50420851,"ECCENTRICITY":0.00781774,"INCLINATION":97.4327,"RA_OF_ASC_NODE":155.8294,"ARG_OF_PERICENTER":43.1375,"MEAN_ANOMALY":317.5966,"EPHEMERIS_TYPE":0,"CLASSIFICATION_TYPE":"U","NORAD_CAT_ID":64093,"ELEMENT_SET_NO":999,"REV_AT_EPOCH":4506,"BSTAR":0.00053431437,"MEAN_MOTION_DOT":0.00034492,"MEAN_MOTION_DDOT":0}]
